NORAD_CAT_ID,OBJECT_NAME,OBJECT_TYPE,EPOCH,MEAN_MOTION,ECCENTRICITY,INCLINATION,RA_OF_ASC_NODE,ARG_OF_PERICENTER,MEAN_ANOMALY,BSTAR,MEAN_MOTION_DOT,MEAN_MOTION_DDOT,TLE_LINE0,TLE_LINE1,TLE_LINE2,SEMIMAJOR_AXIS,PERIOD,APOGEE,PERIGEE,DECAYED
56479.0,STARLINK-6044,PAYLOAD,2024-08-12 22:59:31,14.98348305,0.0002589,70.0019,130.8849,274.3042,85.7821,0.00034455,4.022e-05,0.0,0 STARLINK-6044,1 56479U 23064AH  24225.95800519  .00004022  00000-0  34455-3 0  9990,2 56479  70.0019 130.8849 0002589 274.3042  85.7821 14.98348305 69808,6950.136,96.106,573.801,570.202,0.0
56479.0,STARLINK-6044,PAYLOAD,2024-08-13 03:47:55,14.98355342,0.0002849,70.0015,130.3807,271.8787,88.2046,0.00061545,7.263e-05,0.0,0 STARLINK-6044,1 56479U 23064AH  24226.15827895  .00007263  00000-0  61545-3 0  9999,2 56479  70.0015 130.3807 0002849 271.8787  88.2046 14.98355342 70190,6950.115,96.105,573.96,569.999,0.0
56479.0,STARLINK-6044,PAYLOAD,2024-08-13 16:37:01,14.98311047,0.0002427,70.0028,129.0335,278.8468,81.2417,-0.00035149,-4.282e-05,0.0,0 STARLINK-6044,1 56479U 23064AH  24226.69238118 -.00004282  00000-0 -35149-3 0  9993,2 56479  70.0028 129.0335 0002427 278.8468  81.2417 14.98311047 70278,6950.252,96.108,573.803,570.43,0.0
56479.0,STARLINK-6044,PAYLOAD,2024-08-13 23:01:35,14.98272608,0.0002262,70.0032,128.3604,283.3674,76.7232,-0.0013207,-0.00015792,0.0,0 STARLINK-6044,1 56479U 23064AH  24226.95943868 -.00015792  00000-0 -13207-2 0  9995,2 56479  70.0032 128.3604 0002262 283.3674  76.7232 14.98272608 69957,6950.37,96.111,573.808,570.663,0.0
56479.0,STARLINK-6044,PAYLOAD,2024-08-14 03:50:00,14.98276765,0.0002664,70.0022,127.8571,278.9285,81.1573,-0.00064215,-7.736e-05,0.0,0 STARLINK-6044,1 56479U 23064AH  24227.15972755 -.00007736  00000-0 -64215-3 0  9990,2 56479  70.0022 127.8571 0002664 278.9285  81.1573 14.98276765 70348,6950.358,96.11,574.074,570.371,0.0
56479.0,STARLINK-6044,PAYLOAD,2024-08-14 10:14:32,14.98301366,0.0003042,70.0022,127.1828,280.3057,79.7759,3.5523e-06,-5.1e-07,0.0,0 STARLINK-6044,1 56479U 23064AH  24227.42676330 -.00000051  00000-0  35523-5 0  9994,2 56479  70.0022 127.1828 0003042 280.3057  79.7759 14.98301366 70380,6950.281,96.109,574.261,570.032,0.0
56479.0,STARLINK-6044,PAYLOAD,2024-08-14 19:51:20,14.98328274,0.000307,70.0013,126.1716,287.218,72.8642,0.00055068,6.483e-05,0.0,0 STARLINK-6044,1 56479U 23064AH  24227.82731759  .00006483  00000-0  55068-3 0  9993,2 56479  70.0013 126.1716 0003070 287.2180  72.8642 14.98328274 70448,6950.198,96.107,574.197,569.93,0.0
56479.0,STARLINK-6044,PAYLOAD,2024-08-14 21:27:28,14.98330543,0.0002991,70.0014,126.0037,286.7192,73.3639,0.00062457,7.367e-05,0.0,0 STARLINK-6044,1 56479U 23064AH  24227.89407736  .00007367  00000-0  62457-3 0  9997,2 56479  70.0014 126.0037 0002991 286.7192  73.3639 14.98330543 70097,6950.191,96.107,574.135,569.977,0.0
56479.0,STARLINK-6044,PAYLOAD,2024-08-15 10:16:31,14.98349895,0.0003899,70.0016,124.6573,271.6516,88.4196,0.00087542,0.00010374,0.0,0 STARLINK-6044,1 56479U 23064AH  24228.42814507  .00010374  00000-0  87542-3 0  9999,2 56479  70.0016 124.6573 0003899 271.6516  88.4196 14.98349895 70173,6950.131,96.106,574.706,569.287,0.0
56479.0,STARLINK-6044,PAYLOAD,2024-08-15 21:29:28,14.98343549,0.0003309,70.0006,123.4782,278.2928,81.7855,0.00085964,0.00010183,0.0,0 STARLINK-6044,1 56479U 23064AH  24228.89546960  .00010183  00000-0  85964-3 0  9999,2 56479  70.0006 123.4782 0003309 278.2928  81.7855 14.98343549 70603,6950.151,96.106,574.316,569.716,0.0
56479.0,STARLINK-6044,PAYLOAD,2024-08-15 23:05:36,14.98342912,0.0003327,70.0011,123.3107,284.7227,75.3563,0.00082468,9.764e-05,0.0,0 STARLINK-6044,1 56479U 23064AH  24228.96223062  .00009764  00000-0  82468-3 0  9991,2 56479  70.0011 123.3107 0003327 284.7227  75.3563 14.98342912 70252,6950.153,96.106,574.33,569.706,0.0
56479.0,STARLINK-6044,PAYLOAD,2024-08-16 02:17:52,14.98348968,0.0002956,70.002,122.9743,284.3449,75.7382,0.00078771,9.323e-05,0.0,0 STARLINK-6044,1 56479U 23064AH  24229.09574676  .00009323  00000-0  78771-3 0  9999,2 56479  70.0020 122.9743 0002956 284.3449  75.7382 14.98348968 70274,6950.134,96.106,574.054,569.945,0.0
56479.0,STARLINK-6044,PAYLOAD,2024-08-16 21:31:28,14.98347057,0.0003469,70.0015,120.9549,288.2329,71.8452,-3.0435e-05,-4.56e-06,0.0,0 STARLINK-6044,1 56479U 23064AH  24229.89685663 -.00000456  00000-0 -30435-4 0  9992,2 56479  70.0015 120.9549 0003469 288.2329  71.8452 14.98347057 70396,6950.14,96.106,574.416,569.594,0.0
56479.0,STARLINK-6044,PAYLOAD,2024-08-17 02:19:52,14.98351213,0.000306,70.0009,120.45,278.2008,81.8804,2.203e-05,1.7e-06,0.0,0 STARLINK-6044,1 56479U 23064AH  24230.09713363  .00000170  00000-0  22030-4 0  9998,2 56479  70.0009 120.4500 0003060 278.2008  81.8804 14.98351213 70785,6950.127,96.106,574.119,569.866,0.0
56479.0,STARLINK-6044,PAYLOAD,2024-08-17 16:45:05,14.98333313,0.0003057,70.0013,118.9326,276.63,83.4511,-0.00016584,-2.071e-05,0.0,0 STARLINK-6044,1 56479U 23064AH  24230.69797982 -.00002071  00000-0 -16584-3 0  9993,2 56479  70.0013 118.9326 0003057 276.6300  83.4511 14.98333313 70875,6950.183,96.107,574.172,569.923,0.0
56479.0,STARLINK-6044,PAYLOAD,2024-08-18 02:21:53,14.98335388,0.0002922,70.0017,117.9245,280.8023,79.2807,-0.00011846,-1.506e-05,0.0,0 STARLINK-6044,1 56479U 23064AH  24231.09853767 -.00001506  00000-0 -11846-3 0  9990,2 56479  70.0017 117.9245 0002922 280.8023  79.2807 14.98335388 70579,6950.176,96.107,574.072,570.01,0.0
56479.0,STARLINK-6044,PAYLOAD,2024-08-18 19:59:22,14.98327632,0.0002858,70.0018,116.0727,276.8046,83.2788,0.001006,0.0001193,0.0,0 STARLINK-6044,1 56479U 23064AH  24231.83290189  .00011930  00000-0  10060-2 0  9991,2 56479  70.0018 116.0727 0002858 276.8046  83.2788 14.98327632 71042,6950.2,96.107,574.052,570.079,0.0
56479.0,STARLINK-6044,PAYLOAD,2024-08-18 21:35:29,14.98345562,0.0003148,70.0016,115.9048,274.0088,86.0711,0.00012017,1.342e-05,0.0,0 STARLINK-6044,1 56479U 23064AH  24231.89965159  .00001342  00000-0  12017-3 0  9994,2 56479  70.0016 115.9048 0003148 274.0088  86.0711 14.98345562 70692,6950.145,96.106,574.198,569.822,0.0
56479.0,STARLINK-6044,PAYLOAD,2024-08-19 02:23:54,14.98350712,0.000309,70.0017,115.3999,273.8889,86.1917,0.00066681,7.877e-05,0.0,0 STARLINK-6044,1 56479U 23064AH  24232.09993079  .00007877  00000-0  66681-3 0  9994,2 56479  70.0017 115.3999 0003090 273.8889  86.1917 14.98350712 71080,6950.129,96.106,574.141,569.846,0.0
56479.0,STARLINK-6044,PAYLOAD,2024-08-20 02:25:55,14.98335529,0.0003087,70.001,112.8752,269.755,90.3255,0.00016132,1.833e-05,0.0,0 STARLINK-6044,1 56479U 23064AH  24233.10133475  .00001833  00000-0  16132-3 0  9995,2 56479  70.0010 112.8752 0003087 269.7550  90.3255 14.98335529 71235,6950.176,96.107,574.186,569.895,0.0
56479.0,STARLINK-6044,PAYLOAD,2024-08-21 02:27:56,14.98326,0.0002663,70.0015,110.3519,260.4043,99.6815,-5.8254e-05,-7.88e-06,0.0,0 STARLINK-6044,1 56479U 23064AH  24234.10273735 -.00000788  00000-0 -58254-4 0  9992,2 56479  70.0015 110.3519 0002663 260.4043  99.6815 14.98326000 71382,6950.205,96.107,573.921,570.219,0.0
56479.0,STARLINK-6044,PAYLOAD,2024-08-21 21:41:33,14.98331863,0.000286,70.0005,108.3307,267.7783,92.3049,0.00024988,2.89e-05,0.0,0 STARLINK-6044,1 56479U 23064AH  24234.90385804  .00002890  00000-0  24988-3 0  9991,2 56479  70.0005 108.3307 0002860 267.7783  92.3049 14.98331863 71149,6950.187,96.107,574.04,570.064,0.0
